#dP2021  7  8  0  0  0.00000000     289 ORBIT IGS14 BHN ESOC                    
## 2165 345600.00000000   300.00000000 59403 0.0000000000000                    
+  116   G13G28G21G22G07G05G20G31G17G15G16G29G12G19G02G25G01                    
+        G30G24G27G06G09G03G32G26G08G10G04G18G23G14G11R09R11                    
+        R20R19R13R01R22R16R08R03R07R02R17R18R21R05R15R12R04                    
+        R24E11E12E19E18E14E26E24E30E08E09E01E02E07E03E04E05                    
+        E21E25E27E31E36E13E15E33C11C12C14C19C20C27C28C22C21                    
+        C29C30C23C24C26C25C32C33C35C34C36C37C46C45C44C43C41                    
+        C42C06C07C08C09C10C13C16C38C39C40J01J02J03  0  0  0                    
++         5  5  5  5  5  5  5  5  5  5  5  5  6  5  5  5  5                    
++         5  5  5  5  5  5  5  4  5  6  5  5  5  5  5  7  5                    
++         6  5  6  6  6  5  5  5  5  5  5  5  5  6  5  5  5                    
++         5  5  5  5  5  5  5  5  5  5  5  5  5  5  5  5  5                    
++         5  5  5  5  5  5  5  5  5  5  5  5  5  5  5  6  6                    
++         6  5  6  5  5  5  5  5  5  5  5  6  6  6  5  5  6                    
++         6  5  6  6  6  5  7  6  8  7  7  7  7  6  0  0  0                    
%c M  cc GPS ccc cccc cccc cccc cccc ccccc ccccc ccccc ccccc                    
%c cc cc ccc ccc cccc cccc cccc cccc ccccc ccccc ccccc ccccc                    
%f  0.0000000  0.000000000  0.00000000000  0.000000000000000                    
%f  0.0000000  0.000000000  0.00000000000  0.000000000000000                    
%i    0    0    0    0      0      0      0      0         0                    
%i    0    0    0    0      0      0      0      0         0                    
/* CCCCCCCCCCCCCCCCCCCCCCCCCCCCCCCCCCCCCCCCCCCCCCCCCCCCCCCCCCCCCCCCCCCCCCCCCCCCC
/* CCCCCCCCCCCCCCCCCCCCCCCCCCCCCCCCCCCCCCCCCCCCCCCCCCCCCCCCCCCCCCCCCCCCCCCCCCCCC
/* CCCCCCCCCCCCCCCCCCCCCCCCCCCCCCCCCCCCCCCCCCCCCCCCCCCCCCCCCCCCCCCCCCCCCCCCCCCCC
/* PCV:IGS14      OL/AL:EOT11A   NONE     YN ORB:CoN CLK:CoN                    
*  2021  7  8 20 45  0.00000000                                                 
PG13  13246.207549 -21913.906838   6636.869064    155.141072                    
PG28  19462.887534   4834.668489 -16771.475625    541.239500                    
PG21  -7042.813638  16677.829236 -18553.728794    130.049163                    
PG22   1759.211868  18703.267140 -18669.951929   -568.535618                    
PG07  16794.522548   9204.988302  18965.995800    197.742070                    
PG05   3161.984858 -16386.194666  20464.531236    -47.319422                    
PG20  11562.924548 -10868.289210  21227.996995    520.384041                    
PG31 -25773.147599   7383.067694    499.753665   -127.533395                    
PG17  14393.342515   2594.140423 -21744.109975    470.751640                    
PG15   2831.256387 -26214.746496   -252.055371   -136.903402                    
PG16  -9925.350154  11087.439552  21732.880467   -353.945107                    
PG29  -6375.036119 -18757.409261  17611.197002   -377.023392                    
PG12  -6527.655192 -21579.284007 -14401.474865    -65.903908                    
PG19  16521.577214  -6799.826686 -19889.574067     23.741454                    
PG02  20403.377888 -14707.565352   9279.395775   -618.192293                    
PG25 -16529.031926 -20405.225611  -5107.801420    170.026898                    
PG01   1393.556158  14918.888194 -22173.931057    634.224255                    
PG30  24858.027601    635.952585   9730.204908   -448.476573                    
PG24   3175.448659 -17146.483680 -20183.242945    166.511990                    
PG27 -12128.887043  20943.990571  10324.997468   -159.808187                    
PG06  25691.140989  -6733.509281  -1293.546905     37.339976                    
PG09   9242.207754  17246.007595  17891.797158   -354.682424                    
PG03   8757.269230  21140.827310 -13670.216317   -214.759789                    
PG32 -15618.074468    899.738734 -21329.096439     15.076923                    
PG26 -18073.497265   2943.779031  19269.816101    108.189008                    
PG08  -5951.305401  25706.899283    507.303452    -28.075134                    
PG10 -21867.611650  -9051.946798 -12209.897829   -158.119130                    
PG04    437.396527  24629.895614   9861.051176   -201.931080                    
PG18 -18853.848419  -7146.365492  17314.489358    342.275158                    
PG23 -20609.854674 -16700.812521  -1876.469114     87.230493                    
PG14  21461.556178   9359.859732 -12587.495813     51.997632                    
PG11  22185.709656 -11600.716871   8852.468811     10.604228                    
PR09  -2627.376440 -12072.922628 -22285.558034      1.919354                    
PR11 -24724.769677  -4425.487029   4412.807281    -19.733946                    
PR20  10002.715779 -18017.386241  15059.476583    -52.167550                    
PR19  19868.680189 -15416.957368  -4256.106829   -150.764738                    
PR13   1965.114657  11691.415473  22575.324055    -57.424936                    
PR01  -7583.107686  11461.519719 -21489.763568     82.038880                    
PR22 -17613.870692   5885.189605  17417.002210   -121.667133                    
PR16  14499.202299  -6348.082137 -19978.528557    -17.591489                    
PR08 -11985.113608  -5084.785549 -21882.075365    -59.856611                    
PR03  10525.257566  20483.674072  10958.610462     39.134158                    
PR07 -10645.271496 -20179.046203 -11413.669504    -42.096864                    
PR02   2890.292300  24479.002540  -6405.774923    485.306130                    
PR17   6060.082279   8785.689129 -23168.281095    439.393359                    
PR18  17255.979446  -5207.796330 -18065.304126     82.756501                    
PR21  -7058.571006  -7740.610828  23249.611515   -222.409672                    
PR05   6808.529081 -13101.844063  20818.933022     74.993149                    
PR15  24623.803127   4500.625220  -4899.184347    102.806070                    
PR12 -15670.871214   5260.041170  19462.900699    243.694444                    
PR04  11900.584613   5147.175804  21995.143858     94.913467                    
PR24  -8918.243527  18224.500482 -15461.462671     49.673119                    
PE11  25586.326894  -2479.623768 -14702.347186   5746.582508                    
PE12  10783.431202  12497.718450 -24578.481005   5120.845317                    
PE19  -4758.867635  28836.859675  -4683.147647    321.971287                    
PE18  -8535.273308  27830.235536   -434.439747  -1636.608303                    
PE14  17627.272715 -17423.540115 -14355.760941  -1493.488758                    
PE26 -24637.388897  15872.185784  -4175.255347   1601.957421                    
PE24  26345.330965   9650.544973  -9414.821538   -997.345256                    
PE30 -19314.498958 -20339.979226  -9471.829468   2799.868920                    
PE08  -9661.538197 -23377.838654 -15353.381602   5973.445968                    
PE09  16726.113844   3656.346795  24155.351776   5607.041086                    
PE01   1400.030591  19091.470507  22582.339154  -1145.964855                    
PE02  -1552.153140 -19142.954697 -22523.707398    231.558607                    
PE07 -16823.333847  -3918.212349 -24026.118657   -559.324637                    
PE03   3263.137530 -29303.950316   2507.077089   -450.537111                    
PE04   9455.733554  23682.179716  15044.799880   -809.182657                    
PE05  14267.606450 -17803.509536  18862.179419   -266.738435                    
PE21 -16968.479341   7527.225159  23057.939631   -675.133201                    
PE25  17140.915113  -7350.141042 -22977.124495   -539.385874                    
PE27 -26329.072409  -8873.536844  10218.683637    -71.399168                    
PE31  20133.256012  19948.448081   8555.610136   -483.040917                    
PE36  24979.434372 -15535.693420   3320.707658   -231.747536                    
PE13 -25373.284093   2263.781640  15068.229925    418.766850                    
PE15 -10802.558111 -12380.531276  24619.388087    804.536324                    
PE33 -10086.604144  19698.630531 -19656.534259   -467.972404                    
PC11  17359.026469    614.204220 -21775.239089    446.114058                    
PC12   4761.678453  17315.900440 -21339.028384    817.894937                    
PC14  18632.522536  11588.697369  17302.213727    824.858381                    
PC19 -17172.758771  -1001.788310 -21942.826323    901.715269                    
PC20 -17307.046938 -18714.543749 -11300.339011   -850.935362                    
PC27   3110.677373 -22764.377036  15825.080483    561.117676                    
PC28  16806.602116 -22264.198696   -608.882507    -52.998126                    
PC22  -7094.753840  17904.722543 -20203.916434   -948.485665                    
PC21   7048.722803  26176.924936  -6664.140164   -935.324762                    
PC29 -20288.557217   9476.589046  16641.847920    416.784978                    
PC30 -12393.964410 -10000.018371  22906.699178    473.347081                    
PC23  16400.906474 -12086.016991 -19060.621892   -963.665585                    
PC24  22065.849280  11361.206260  12739.763270   -929.759622                    
PC26   5366.602762  16203.842162  22067.189185    881.493809                    
PC25  27358.150652  -1694.523338  -5188.039370   -888.935271                    
PC32  -7182.753659 -26107.490595   6732.171878   -924.298993                    
PC33  17256.367754   1014.780728  21918.438573   -941.382344                    
PC35 -16201.539034  22680.438130    957.159718   -196.429415                    
PC34  12964.936394   9277.734538 -22916.735231   -632.590601                    
PC36 -27468.922081    827.535192   4869.742066   -731.554773                    
PC37  -3979.389884 -16343.797253 -22244.920191   -866.704647                    
PC46 -22867.529430 -10714.550496 -11896.669307    187.953868                    
PC45 -16231.869892  12093.233360  19227.025027    488.202766                    
PC44  -2378.863417  22966.213347 -15664.273885    279.458993                    
PC43  20353.729213  -8809.934483 -16960.231608   -812.480842                    
PC41   7356.241713 -17644.116828  20378.969147   -956.992585                    
PC42  17168.241329  19280.905227  10665.283335   -917.936531                    
PC06 -19697.789582  36884.974334   3109.803795    599.898131                    
PC07  -6863.702033  30854.382928  28415.708708    142.653602                    
PC08 -18897.968720  19066.664694 -32507.868419   -902.073760                    
PC09  -9931.005750  37114.934658  17170.759021    388.760956                    
PC10   4692.637550  36600.872438  21045.746908    -20.957204                    
PC13  -5131.274159  22513.812964 -35211.184592    329.320601                    
PC16 -18325.092270  37564.986583   4736.452208   -930.183067                    
PC38 -17074.797087  21844.364207 -31797.141607    160.374705                    
PC39 -15266.816783  38850.923831   5349.332582     32.223941                    
PC40    147.598078  33826.837965  25301.084191    178.590403                    
PJ01 -20001.017004  26104.871873 -21837.270817   -411.499052                    
PJ02 -27636.477765  20682.242840  29125.879736     -0.665419                    
PJ03 -32285.672600  26918.007482   7443.249833    -10.446061                    
EOF                                                                             
